STARLINK-35775          
1 67038U 25294J   25363.58336806 -.02573693  00000+0 -45239-1 0  9994
2 67038  43.0001  79.8911 0001146 252.3083 315.0382 15.53151795  2921
STARLINK-35705          
1 67039U 25294K   25363.58336806 -.02283537  00000+0 -40644-1 0  9995
2 67039  43.0001  79.8814 0001079 252.5384 318.7107 15.52970396  2813
STARLINK-35786          
1 67040U 25294L   25363.58336806 -.02401508  00000+0 -42916-1 0  9991
2 67040  43.0001  79.8869 0001099 256.8060 312.4958 15.53060204  2819
STARLINK-35765          
1 67041U 25294M   25363.58336806 -.02291385  00000+0 -40805-1 0  9997
2 67041  43.0003  79.8767 0001002 251.9919 321.1817 15.52970250  2813
STARLINK-35773          
1 67042U 25294N   25363.58336806 -.02311121  00000+0 -41204-1 0  9993
2 67042  43.0004  79.8719 0001101 259.0876 316.0199 15.52971184  3008
STARLINK-35901          
1 67043U 25294P   25363.58336806 -.02269389  00000+0 -40414-1 0  9994
2 67043  43.0002  79.8671 0001141 256.6250 320.4255 15.52931258  3007
STARLINK-35884          
1 67044U 25294Q   25363.58336806 -.02256284  00000+0 -40176-1 0  9990
2 67044  43.0002  79.8622 0001076 255.1864 323.7982 15.52913487  3003
STARLINK-35891          
1 67045U 25294R   25363.58336806 -.02229930  00000+0 -39703-1 0  9993
2 67045  43.0000  79.8575 0001267 263.6590 317.2855 15.52870395  2928
STARLINK-35721          
1 67046U 25294S   25363.58336806 -.02225461  00000+0 -39638-1 0  9996
2 67046  43.0001  79.8525 0001401 267.7561 315.1298 15.52851796  3000
STARLINK-35779          
1 67047U 25294T   25363.58336806 -.02186326  00000+0 -38921-1 0  9997
2 67047  43.0001  79.8477 0001409 267.8098 317.0390 15.52800631  2815
STARLINK-35905          
1 67048U 25294U   25363.58336806 -.02208331  00000+0 -39344-1 0  9999
2 67048  43.0000  79.8429 0001310 267.0791 319.6858 15.52816589  2923
STARLINK-35877          
1 67049U 25294V   25363.58336806 -.02125601  00000+0 -37811-1 0  9995
2 67049  43.0006  79.8385 0001087 280.6296 308.1008 15.52724806  3003
