CCSDS_OMM_VERS = 2.0
CREATION_DATE  = 
ORIGINATOR     = 

OBJECT_NAME    = STARLINK-35775
OBJECT_ID      = 2025-294J
CENTER_NAME    = EARTH
REF_FRAME      = TEME
TIME_SYSTEM    = UTC
MEAN_ELEMENT_THEORY = SGP/SGP4

EPOCH          = 2025-12-29T14:00:03.000384
MEAN_MOTION    = 15.53151795
ECCENTRICITY   = .00011465
INCLINATION    = 43.0001
RA_OF_ASC_NODE = 79.8911
ARG_OF_PERICENTER = 252.3083
MEAN_ANOMALY   = 315.0382

EPHEMERIS_TYPE = 0
CLASSIFICATION_TYPE = U
NORAD_CAT_ID   = 67038
ELEMENT_SET_NO = 999
REV_AT_EPOCH   = 292
BSTAR          = -.45239204E-1
MEAN_MOTION_DOT = -.2573693E-1
MEAN_MOTION_DDOT = 0

CCSDS_OMM_VERS = 2.0
CREATION_DATE  = 
ORIGINATOR     = 

OBJECT_NAME    = STARLINK-35705
OBJECT_ID      = 2025-294K
CENTER_NAME    = EARTH
REF_FRAME      = TEME
TIME_SYSTEM    = UTC
MEAN_ELEMENT_THEORY = SGP/SGP4

EPOCH          = 2025-12-29T14:00:03.000384
MEAN_MOTION    = 15.52970396
ECCENTRICITY   = .00010791
INCLINATION    = 43.0001
RA_OF_ASC_NODE = 79.8814
ARG_OF_PERICENTER = 252.5384
MEAN_ANOMALY   = 318.7107

EPHEMERIS_TYPE = 0
CLASSIFICATION_TYPE = U
NORAD_CAT_ID   = 67039
ELEMENT_SET_NO = 999
REV_AT_EPOCH   = 281
BSTAR          = -.40644358E-1
MEAN_MOTION_DOT = -.2283537E-1
MEAN_MOTION_DDOT = 0

CCSDS_OMM_VERS = 2.0
CREATION_DATE  = 
ORIGINATOR     = 

OBJECT_NAME    = STARLINK-35786
OBJECT_ID      = 2025-294L
CENTER_NAME    = EARTH
REF_FRAME      = TEME
TIME_SYSTEM    = UTC
MEAN_ELEMENT_THEORY = SGP/SGP4

EPOCH          = 2025-12-29T14:00:03.000384
MEAN_MOTION    = 15.53060204
ECCENTRICITY   = .00010999
INCLINATION    = 43.0001
RA_OF_ASC_NODE = 79.8869
ARG_OF_PERICENTER = 256.8060
MEAN_ANOMALY   = 312.4958

EPHEMERIS_TYPE = 0
CLASSIFICATION_TYPE = U
NORAD_CAT_ID   = 67040
ELEMENT_SET_NO = 999
REV_AT_EPOCH   = 281
BSTAR          = -.42916131E-1
MEAN_MOTION_DOT = -.2401508E-1
MEAN_MOTION_DDOT = 0

CCSDS_OMM_VERS = 2.0
CREATION_DATE  = 
ORIGINATOR     = 

OBJECT_NAME    = STARLINK-35765
OBJECT_ID      = 2025-294M
CENTER_NAME    = EARTH
REF_FRAME      = TEME
TIME_SYSTEM    = UTC
MEAN_ELEMENT_THEORY = SGP/SGP4

EPOCH          = 2025-12-29T14:00:03.000384
MEAN_MOTION    = 15.52970250
ECCENTRICITY   = .0001002
INCLINATION    = 43.0003
RA_OF_ASC_NODE = 79.8767
ARG_OF_PERICENTER = 251.9919
MEAN_ANOMALY   = 321.1817

EPHEMERIS_TYPE = 0
CLASSIFICATION_TYPE = U
NORAD_CAT_ID   = 67041
ELEMENT_SET_NO = 999
REV_AT_EPOCH   = 281
BSTAR          = -.4080508E-1
MEAN_MOTION_DOT = -.2291385E-1
MEAN_MOTION_DDOT = 0

CCSDS_OMM_VERS = 2.0
CREATION_DATE  = 
ORIGINATOR     = 

OBJECT_NAME    = STARLINK-35773
OBJECT_ID      = 2025-294N
CENTER_NAME    = EARTH
REF_FRAME      = TEME
TIME_SYSTEM    = UTC
MEAN_ELEMENT_THEORY = SGP/SGP4

EPOCH          = 2025-12-29T14:00:03.000384
MEAN_MOTION    = 15.52971184
ECCENTRICITY   = .00011011
INCLINATION    = 43.0004
RA_OF_ASC_NODE = 79.8719
ARG_OF_PERICENTER = 259.0876
MEAN_ANOMALY   = 316.0199

EPHEMERIS_TYPE = 0
CLASSIFICATION_TYPE = U
NORAD_CAT_ID   = 67042
ELEMENT_SET_NO = 999
REV_AT_EPOCH   = 300
BSTAR          = -.4120368E-1
MEAN_MOTION_DOT = -.2311121E-1
MEAN_MOTION_DDOT = 0

CCSDS_OMM_VERS = 2.0
CREATION_DATE  = 
ORIGINATOR     = 

OBJECT_NAME    = STARLINK-35901
OBJECT_ID      = 2025-294P
CENTER_NAME    = EARTH
REF_FRAME      = TEME
TIME_SYSTEM    = UTC
MEAN_ELEMENT_THEORY = SGP/SGP4

EPOCH          = 2025-12-29T14:00:03.000384
MEAN_MOTION    = 15.52931258
ECCENTRICITY   = .00011415
INCLINATION    = 43.0002
RA_OF_ASC_NODE = 79.8671
ARG_OF_PERICENTER = 256.6250
MEAN_ANOMALY   = 320.4255

EPHEMERIS_TYPE = 0
CLASSIFICATION_TYPE = U
NORAD_CAT_ID   = 67043
ELEMENT_SET_NO = 999
REV_AT_EPOCH   = 300
BSTAR          = -.404145E-1
MEAN_MOTION_DOT = -.2269389E-1
MEAN_MOTION_DDOT = 0

CCSDS_OMM_VERS = 2.0
CREATION_DATE  = 
ORIGINATOR     = 

OBJECT_NAME    = STARLINK-35884
OBJECT_ID      = 2025-294Q
CENTER_NAME    = EARTH
REF_FRAME      = TEME
TIME_SYSTEM    = UTC
MEAN_ELEMENT_THEORY = SGP/SGP4

EPOCH          = 2025-12-29T14:00:03.000384
MEAN_MOTION    = 15.52913487
ECCENTRICITY   = .00010769
INCLINATION    = 43.0002
RA_OF_ASC_NODE = 79.8622
ARG_OF_PERICENTER = 255.1864
MEAN_ANOMALY   = 323.7982

EPHEMERIS_TYPE = 0
CLASSIFICATION_TYPE = U
NORAD_CAT_ID   = 67044
ELEMENT_SET_NO = 999
REV_AT_EPOCH   = 300
BSTAR          = -.40176021E-1
MEAN_MOTION_DOT = -.2256284E-1
MEAN_MOTION_DDOT = 0

CCSDS_OMM_VERS = 2.0
CREATION_DATE  = 
ORIGINATOR     = 

OBJECT_NAME    = STARLINK-35891
OBJECT_ID      = 2025-294R
CENTER_NAME    = EARTH
REF_FRAME      = TEME
TIME_SYSTEM    = UTC
MEAN_ELEMENT_THEORY = SGP/SGP4

EPOCH          = 2025-12-29T14:00:03.000384
MEAN_MOTION    = 15.52870395
ECCENTRICITY   = .00012679
INCLINATION    = 43.0000
RA_OF_ASC_NODE = 79.8575
ARG_OF_PERICENTER = 263.6590
MEAN_ANOMALY   = 317.2855

EPHEMERIS_TYPE = 0
CLASSIFICATION_TYPE = U
NORAD_CAT_ID   = 67045
ELEMENT_SET_NO = 999
REV_AT_EPOCH   = 292
BSTAR          = -.39702835E-1
MEAN_MOTION_DOT = -.222993E-1
MEAN_MOTION_DDOT = 0

CCSDS_OMM_VERS = 2.0
CREATION_DATE  = 
ORIGINATOR     = 

OBJECT_NAME    = STARLINK-35721
OBJECT_ID      = 2025-294S
CENTER_NAME    = EARTH
REF_FRAME      = TEME
TIME_SYSTEM    = UTC
MEAN_ELEMENT_THEORY = SGP/SGP4

EPOCH          = 2025-12-29T14:00:03.000384
MEAN_MOTION    = 15.52851796
ECCENTRICITY   = .00014012
INCLINATION    = 43.0001
RA_OF_ASC_NODE = 79.8525
ARG_OF_PERICENTER = 267.7561
MEAN_ANOMALY   = 315.1298

EPHEMERIS_TYPE = 0
CLASSIFICATION_TYPE = U
NORAD_CAT_ID   = 67046
ELEMENT_SET_NO = 999
REV_AT_EPOCH   = 300
BSTAR          = -.39637543E-1
MEAN_MOTION_DOT = -.2225461E-1
MEAN_MOTION_DDOT = 0

CCSDS_OMM_VERS = 2.0
CREATION_DATE  = 
ORIGINATOR     = 

OBJECT_NAME    = STARLINK-35779
OBJECT_ID      = 2025-294T
CENTER_NAME    = EARTH
REF_FRAME      = TEME
TIME_SYSTEM    = UTC
MEAN_ELEMENT_THEORY = SGP/SGP4

EPOCH          = 2025-12-29T14:00:03.000384
MEAN_MOTION    = 15.52800631
ECCENTRICITY   = .0001409
INCLINATION    = 43.0001
RA_OF_ASC_NODE = 79.8477
ARG_OF_PERICENTER = 267.8098
MEAN_ANOMALY   = 317.0390

EPHEMERIS_TYPE = 0
CLASSIFICATION_TYPE = U
NORAD_CAT_ID   = 67047
ELEMENT_SET_NO = 999
REV_AT_EPOCH   = 281
BSTAR          = -.38921008E-1
MEAN_MOTION_DOT = -.2186326E-1
MEAN_MOTION_DDOT = 0

CCSDS_OMM_VERS = 2.0
CREATION_DATE  = 
ORIGINATOR     = 

OBJECT_NAME    = STARLINK-35905
OBJECT_ID      = 2025-294U
CENTER_NAME    = EARTH
REF_FRAME      = TEME
TIME_SYSTEM    = UTC
MEAN_ELEMENT_THEORY = SGP/SGP4

EPOCH          = 2025-12-29T14:00:03.000384
MEAN_MOTION    = 15.52816589
ECCENTRICITY   = .00013107
INCLINATION    = 43.0000
RA_OF_ASC_NODE = 79.8429
ARG_OF_PERICENTER = 267.0791
MEAN_ANOMALY   = 319.6858

EPHEMERIS_TYPE = 0
CLASSIFICATION_TYPE = U
NORAD_CAT_ID   = 67048
ELEMENT_SET_NO = 999
REV_AT_EPOCH   = 292
BSTAR          = -.39343535E-1
MEAN_MOTION_DOT = -.2208331E-1
MEAN_MOTION_DDOT = 0

CCSDS_OMM_VERS = 2.0
CREATION_DATE  = 
ORIGINATOR     = 

OBJECT_NAME    = STARLINK-35877
OBJECT_ID      = 2025-294V
CENTER_NAME    = EARTH
REF_FRAME      = TEME
TIME_SYSTEM    = UTC
MEAN_ELEMENT_THEORY = SGP/SGP4

EPOCH          = 2025-12-29T14:00:03.000384
MEAN_MOTION    = 15.52724806
ECCENTRICITY   = .00010875
INCLINATION    = 43.0006
RA_OF_ASC_NODE = 79.8385
ARG_OF_PERICENTER = 280.6296
MEAN_ANOMALY   = 308.1008

EPHEMERIS_TYPE = 0
CLASSIFICATION_TYPE = U
NORAD_CAT_ID   = 67049
ELEMENT_SET_NO = 999
REV_AT_EPOCH   = 300
BSTAR          = -.37810938E-1
MEAN_MOTION_DOT = -.2125601E-1
MEAN_MOTION_DDOT = 0

